{
  "type": "FeatureCollection",
  "features": [
    {
      "type": "Feature",
      "properties": {
        "norad_id": 66974,
        "name": "STARLINK-35780",
        "group": "last-30-days",
        "lat": -42.46841533760329,
        "lon": 16.565237756176074,
        "alt_km": 334.7780424836719,
        "timestamp": "2025-12-20T20:38:43.174946+00:00",
        "meta_object_name": "STARLINK-35780",
        "meta_object_id": "2025-288R",
        "meta_epoch": "2025-12-20T14:00:03.000384",
        "meta_mean_motion": 15.80133655,
        "meta_eccentricity": 0.0001519,
        "meta_inclination": 43.0015,
        "meta_ra_of_asc_node": 119.0755,
        "meta_arg_of_pericenter": 282.2227,
        "meta_mean_anomaly": 203.4432,
        "meta_ephemeris_type": 0,
        "meta_classification_type": "U",
        "meta_norad_cat_id": 66974,
        "meta_element_set_no": 999,
        "meta_rev_at_epoch": 309,
        "meta_bstar": -0.0084701641,
        "meta_mean_motion_dot": -0.01447758,
        "meta_mean_motion_ddot": 0,
        "tle_line1": "1 66974U 25288R   25354.58336806 -.01447758  00000+0 -84702-2 0  9995",
        "tle_line2": "2 66974  43.0015 119.0755 0001519 282.2227 203.4432 15.80133655  3093"
      },
      "geometry": {
        "type": "Point",
        "coordinates": [
          16.565237756176074,
          -42.46841533760329
        ]
      }
    },
    {
      "type": "Feature",
      "properties": {
        "norad_id": 66975,
        "name": "STARLINK-35777",
        "group": "last-30-days",
        "lat": -42.88015465102277,
        "lon": 22.57447715056216,
        "alt_km": 335.05489748639775,
        "timestamp": "2025-12-20T20:38:43.174960+00:00",
        "meta_object_name": "STARLINK-35777",
        "meta_object_id": "2025-288S",
        "meta_epoch": "2025-12-20T14:00:03.000384",
        "meta_mean_motion": 15.80086103,
        "meta_eccentricity": 0.00014015,
        "meta_inclination": 43.0014,
        "meta_ra_of_asc_node": 119.0638,
        "meta_arg_of_pericenter": 279.0591,
        "meta_mean_anomaly": 211.1225,
        "meta_ephemeris_type": 0,
        "meta_classification_type": "U",
        "meta_norad_cat_id": 66975,
        "meta_element_set_no": 999,
        "meta_rev_at_epoch": 309,
        "meta_bstar": -0.008862135,
        "meta_mean_motion_dot": -0.01503702,
        "meta_mean_motion_ddot": 0,
        "tle_line1": "1 66975U 25288S   25354.58336806 -.01503702  00000+0 -88621-2 0  9992",
        "tle_line2": "2 66975  43.0014 119.0638 0001401 279.0591 211.1225 15.80086103  3092"
      },
      "geometry": {
        "type": "Point",
        "coordinates": [
          22.57447715056216,
          -42.88015465102277
        ]
      }
    },
    {
      "type": "Feature",
      "properties": {
        "norad_id": 66976,
        "name": "STARLINK-35772",
        "group": "last-30-days",
        "lat": 41.450082552846496,
        "lon": -133.62017156707074,
        "alt_km": 365.12156732670246,
        "timestamp": "2025-12-20T20:38:43.174970+00:00",
        "meta_object_name": "STARLINK-35772",
        "meta_object_id": "2025-288T",
        "meta_epoch": "2025-12-20T14:00:03.000384",
        "meta_mean_motion": 15.67445861,
        "meta_eccentricity": 0.00014921,
        "meta_inclination": 43.0004,
        "meta_ra_of_asc_node": 119.4377,
        "meta_arg_of_pericenter": 274.8746,
        "meta_mean_anomaly": 65.582,
        "meta_ephemeris_type": 0,
        "meta_classification_type": "U",
        "meta_norad_cat_id": 66976,
        "meta_element_set_no": 999,
        "meta_rev_at_epoch": 309,
        "meta_bstar": -0.025726736,
        "meta_mean_motion_dot": -0.02503554,
        "meta_mean_motion_ddot": 0,
        "tle_line1": "1 66976U 25288T   25354.58336806 -.02503554  00000+0 -25727-1 0  9996",
        "tle_line2": "2 66976  43.0004 119.4377 0001492 274.8746  65.5820 15.67445861  3098"
      },
      "geometry": {
        "type": "Point",
        "coordinates": [
          -133.62017156707074,
          41.450082552846496
        ]
      }
    },
    {
      "type": "Feature",
      "properties": {
        "norad_id": 66977,
        "name": "STARLINK-35770",
        "group": "last-30-days",
        "lat": -42.9707384632765,
        "lon": 25.880281413452128,
        "alt_km": 335.4976219689206,
        "timestamp": "2025-12-20T20:38:43.174980+00:00",
        "meta_object_name": "STARLINK-35770",
        "meta_object_id": "2025-288U",
        "meta_epoch": "2025-12-20T14:00:03.000384",
        "meta_mean_motion": 15.80024832,
        "meta_eccentricity": 0.00011213,
        "meta_inclination": 43.0013,
        "meta_ra_of_asc_node": 119.0578,
        "meta_arg_of_pericenter": 282.681,
        "meta_mean_anomaly": 210.0062,
        "meta_ephemeris_type": 0,
        "meta_classification_type": "U",
        "meta_norad_cat_id": 66977,
        "meta_element_set_no": 999,
        "meta_rev_at_epoch": 309,
        "meta_bstar": -0.009169011,
        "meta_mean_motion_dot": -0.01545236,
        "meta_mean_motion_ddot": 0,
        "tle_line1": "1 66977U 25288U   25354.58336806 -.01545236  00000+0 -91690-2 0  9992",
        "tle_line2": "2 66977  43.0013 119.0578 0001121 282.6810 210.0062 15.80024832  3097"
      },
      "geometry": {
        "type": "Point",
        "coordinates": [
          25.880281413452128,
          -42.9707384632765
        ]
      }
    },
    {
      "type": "Feature",
      "properties": {
        "norad_id": 66978,
        "name": "STARLINK-35787",
        "group": "last-30-days",
        "lat": -42.75705819204645,
        "lon": 34.511236901945885,
        "alt_km": 335.5847842386338,
        "timestamp": "2025-12-20T20:38:43.174992+00:00",
        "meta_object_name": "STARLINK-35787",
        "meta_object_id": "2025-288V",
        "meta_epoch": "2025-12-20T14:00:03.000384",
        "meta_mean_motion": 15.79941178,
        "meta_eccentricity": 0.00013967,
        "meta_inclination": 43.0017,
        "meta_ra_of_asc_node": 119.0415,
        "meta_arg_of_pericenter": 283.4381,
        "meta_mean_anomaly": 215.6932,
        "meta_ephemeris_type": 0,
        "meta_classification_type": "U",
        "meta_norad_cat_id": 66978,
        "meta_element_set_no": 999,
        "meta_rev_at_epoch": 309,
        "meta_bstar": -0.0094402713,
        "meta_mean_motion_dot": -0.01579945,
        "meta_mean_motion_ddot": 0,
        "tle_line1": "1 66978U 25288V   25354.58336806 -.01579945  00000+0 -94403-2 0  9992",
        "tle_line2": "2 66978  43.0017 119.0415 0001396 283.4381 215.6932 15.79941178  3094"
      },
      "geometry": {
        "type": "Point",
        "coordinates": [
          34.511236901945885,
          -42.75705819204645
        ]
      }
    },
    {
      "type": "Feature",
      "properties": {
        "norad_id": 66979,
        "name": "STARLINK-36107",
        "group": "last-30-days",
        "lat": -42.51127856425483,
        "lon": 37.702903150386106,
        "alt_km": 335.8917054914273,
        "timestamp": "2025-12-20T20:38:43.175004+00:00",
        "meta_object_name": "STARLINK-36107",
        "meta_object_id": "2025-288W",
        "meta_epoch": "2025-12-20T14:00:03.000384",
        "meta_mean_motion": 15.79860426,
        "meta_eccentricity": 0.00012808,
        "meta_inclination": 43.0015,
        "meta_ra_of_asc_node": 119.0353,
        "meta_arg_of_pericenter": 281.7249,
        "meta_mean_anomaly": 219.8584,
        "meta_ephemeris_type": 0,
        "meta_classification_type": "U",
        "meta_norad_cat_id": 66979,
        "meta_element_set_no": 999,
        "meta_rev_at_epoch": 309,
        "meta_bstar": -0.009552015,
        "meta_mean_motion_dot": -0.01590938,
        "meta_mean_motion_ddot": 0,
        "tle_line1": "1 66979U 25288W   25354.58336806 -.01590938  00000+0 -95520-2 0  9999",
        "tle_line2": "2 66979  43.0015 119.0353 0001280 281.7249 219.8584 15.79860426  3095"
      },
      "geometry": {
        "type": "Point",
        "coordinates": [
          37.702903150386106,
          -42.51127856425483
        ]
      }
    },
    {
      "type": "Feature",
      "properties": {
        "norad_id": 66980,
        "name": "STARLINK-36086",
        "group": "last-30-days",
        "lat": -42.208402820358316,
        "lon": 40.605261310479115,
        "alt_km": 335.9634415924702,
        "timestamp": "2025-12-20T20:38:43.175014+00:00",
        "meta_object_name": "STARLINK-36086",
        "meta_object_id": "2025-288X",
        "meta_epoch": "2025-12-20T14:00:03.000384",
        "meta_mean_motion": 15.79815591,
        "meta_eccentricity": 0.00013639,
        "meta_inclination": 43.0015,
        "meta_ra_of_asc_node": 119.0294,
        "meta_arg_of_pericenter": 276.4526,
        "meta_mean_anomaly": 227.3499,
        "meta_ephemeris_type": 0,
        "meta_classification_type": "U",
        "meta_norad_cat_id": 66980,
        "meta_element_set_no": 999,
        "meta_rev_at_epoch": 309,
        "meta_bstar": -0.009636889,
        "meta_mean_motion_dot": -0.01600402,
        "meta_mean_motion_ddot": 0,
        "tle_line1": "1 66980U 25288X   25354.58336806 -.01600402  00000+0 -96369-2 0  9991",
        "tle_line2": "2 66980  43.0015 119.0294 0001363 276.4526 227.3499 15.79815591  3094"
      },
      "geometry": {
        "type": "Point",
        "coordinates": [
          40.605261310479115,
          -42.208402820358316
        ]
      }
    }
  ]
}